{"spkid": "50830888", "covariance": {"epoch": "2460144.5", "labels": ["e", "q", "tp", "node", "peri", "i"], "elements": [{"units": null, "value": ".5964205050615295", "title": "eccentricity", "name": "e", "sigma": 3.57496274845352e-07, "label": "e"}, {"units": "au", "title": "perihelion distance", "value": ".7099584792229942", "sigma": 6.29341774523912e-07, "name": "q", "label": "q"}, {"name": "tp", "sigma": 9.92219342423596e-06, "title": "time of perihelion passage", "value": "2460149.706965692883", "units": "TDB", "label": "tp"}, {"name": "om", "sigma": 8.83552322808523e-05, "units": "deg", "title": "longitude of the ascending node", "value": "164.7053549431514", "label": "node"}, {"label": "peri", "name": "w", "sigma": 0.000130020986635577, "units": "deg", "title": "argument of perihelion", "value": "285.9989983819998"}, {"label": "i", "sigma": 1.93759211165657e-05, "name": "i", "title": "inclination", "value": "3.711320605735589", "units": "deg"}], "data": [["1.278035865283032E-13", "-2.249872471872623E-13", "1.293582660781789E-12", "-1.37443430691977E-11", "3.747095565523131E-11", "-3.466493552648275E-12"], ["-2.249872471872623E-13", "3.960710691609059E-13", "-2.274752085759607E-12", "2.420577445002296E-11", "-6.597194681473368E-11", "6.105604282876397E-12"], ["1.293582660781789E-12", "-2.274752085759607E-12", "9.844992234795141E-11", "8.566466881310036E-11", "2.410979590316483E-10", "4.450545769694398E-11"], ["-1.37443430691977E-11", "2.420577445002296E-11", "8.566466881310036E-11", "7.806647071403357E-9", "-1.010874291897851E-8", "1.622515471117909E-9"], ["3.747095565523131E-11", "-6.597194681473368E-11", "2.410979590316483E-10", "-1.010874291897851E-8", "1.690545696568895E-8", "-2.180516290446958E-9"], ["-3.466493552648275E-12", "6.105604282876397E-12", "4.450545769694398E-11", "1.622515471117909E-9", "-2.180516290446958E-9", "3.754263191153767E-10"]]}, "elements": [{"label": "e", "name": "e", "sigma": "3.5825E-7", "units": null, "title": "eccentricity", "value": ".5964432332251196"}, {"name": "a", "sigma": "4.9401E-9", "title": "semi-major axis", "value": "1.75804182750561", "units": "au", "label": "a"}, {"label": "q", "units": "au", "title": "perihelion distance", "value": ".7094696757631661", "name": "q", "sigma": "6.3E-7"}, {"name": "i", "sigma": "1.94E-5", "value": "3.698360587887607", "title": "inclination; angle with respect to x-y ecliptic plane", "units": "deg", "label": "i"}, {"sigma": "8.9438E-5", "name": "om", "units": "deg", "value": "164.56050572521", "title": "longitude of the ascending node", "label": "node"}, {"label": "peri", "units": "deg", "value": "286.2006041485448", "title": "argument of perihelion", "name": "w", "sigma": ".00013103"}, {"label": "M", "title": "mean anomaly", "value": "83.86085745082863", "units": "deg", "sigma": "4.4795E-6", "name": "ma"}, {"label": "tp", "sigma": "9.9862E-6", "name": "tp", "units": "TDB", "value": "2461002.165150866059", "title": "time of perihelion passage"}, {"sigma": "3.5887E-6", "name": "per", "units": "d", "title": "sidereal orbital period", "value": "851.4168332953678", "label": "period"}, {"title": "mean motion", "value": ".4228246211748449", "units": "deg/d", "name": "n", "sigma": "1.7822E-9", "label": "n"}, {"label": "Q", "name": "ad", "sigma": "7.8866E-9", "title": "aphelion distance", "value": "2.806613979248055", "units": "au"}], "epoch": "2461200.5"}